{
  "type": "FeatureCollection",
  "features": [
    {
      "type": "Feature",
      "properties": {
        "norad_id": 55973,
        "name": "TIANMU-1 03",
        "group": "weather",
        "lat": -79.89159031785258,
        "lon": -152.85538255604033,
        "alt_km": 451.12544134280415,
        "timestamp": "2025-12-22T11:33:20.072133+00:00",
        "meta_object_name": "TIANMU-1 03",
        "meta_object_id": "2023-039A",
        "meta_epoch": "2025-12-22T04:07:29.777088",
        "meta_mean_motion": 15.41182514,
        "meta_eccentricity": 0.0003942,
        "meta_inclination": 97.5109,
        "meta_ra_of_asc_node": 159.0884,
        "meta_arg_of_pericenter": 33.8992,
        "meta_mean_anomaly": 326.2506,
        "meta_ephemeris_type": 0,
        "meta_classification_type": "U",
        "meta_norad_cat_id": 55973,
        "meta_element_set_no": 999,
        "meta_rev_at_epoch": 15351,
        "meta_bstar": 0.00039571,
        "meta_mean_motion_dot": 0.00016346,
        "meta_mean_motion_ddot": 0,
        "tle_line1": "1 55973U 23039A   25356.17187242  .00016346  00000+0  39571-3 0  9996",
        "tle_line2": "2 55973  97.5109 159.0884 0003942  33.8992 326.2506 15.41182514153510"
      },
      "geometry": {
        "type": "Point",
        "coordinates": [
          -152.85538255604033,
          -79.89159031785258
        ]
      }
    },
    {
      "type": "Feature",
      "properties": {
        "norad_id": 55974,
        "name": "TIANMU-1 04",
        "group": "weather",
        "lat": 42.16433105565466,
        "lon": 151.737792756538,
        "alt_km": 435.2233302126415,
        "timestamp": "2025-12-22T11:33:20.072142+00:00",
        "meta_object_name": "TIANMU-1 04",
        "meta_object_id": "2023-039B",
        "meta_epoch": "2025-12-22T03:34:55.047936",
        "meta_mean_motion": 15.41522776,
        "meta_eccentricity": 0.0004577,
        "meta_inclination": 97.504,
        "meta_ra_of_asc_node": 158.2524,
        "meta_arg_of_pericenter": 27.8337,
        "meta_mean_anomaly": 332.3153,
        "meta_ephemeris_type": 0,
        "meta_classification_type": "U",
        "meta_norad_cat_id": 55974,
        "meta_element_set_no": 999,
        "meta_rev_at_epoch": 15351,
        "meta_bstar": 0.00040133,
        "meta_mean_motion_dot": 0.0001677,
        "meta_mean_motion_ddot": 0,
        "tle_line1": "1 55974U 23039B   25356.14924824  .00016770  00000+0  40133-3 0  9996",
        "tle_line2": "2 55974  97.5040 158.2524 0004577  27.8337 332.3153 15.41522776153512"
      },
      "geometry": {
        "type": "Point",
        "coordinates": [
          151.737792756538,
          42.16433105565466
        ]
      }
    },
    {
      "type": "Feature",
      "properties": {
        "norad_id": 55975,
        "name": "TIANMU-1 05",
        "group": "weather",
        "lat": 60.27617085697862,
        "lon": 145.72931469778726,
        "alt_km": 434.1598854657432,
        "timestamp": "2025-12-22T11:33:20.072153+00:00",
        "meta_object_name": "TIANMU-1 05",
        "meta_object_id": "2023-039C",
        "meta_epoch": "2025-12-22T05:03:29.403072",
        "meta_mean_motion": 15.41140511,
        "meta_eccentricity": 0.0004076,
        "meta_inclination": 97.5087,
        "meta_ra_of_asc_node": 158.8084,
        "meta_arg_of_pericenter": 52.7357,
        "meta_mean_anomaly": 307.4261,
        "meta_ephemeris_type": 0,
        "meta_classification_type": "U",
        "meta_norad_cat_id": 55975,
        "meta_element_set_no": 999,
        "meta_rev_at_epoch": 15350,
        "meta_bstar": 0.00040885,
        "meta_mean_motion_dot": 0.0001687,
        "meta_mean_motion_ddot": 0,
        "tle_line1": "1 55975U 23039C   25356.21075698  .00016870  00000+0  40885-3 0  9996",
        "tle_line2": "2 55975  97.5087 158.8084 0004076  52.7357 307.4261 15.41140511153509"
      },
      "geometry": {
        "type": "Point",
        "coordinates": [
          145.72931469778726,
          60.27617085697862
        ]
      }
    },
    {
      "type": "Feature",
      "properties": {
        "norad_id": 55976,
        "name": "TIANMU-1 06",
        "group": "weather",
        "lat": 32.02380788202851,
        "lon": 154.82699670514108,
        "alt_km": 436.79067354271865,
        "timestamp": "2025-12-22T11:33:20.072165+00:00",
        "meta_object_name": "TIANMU-1 06",
        "meta_object_id": "2023-039D",
        "meta_epoch": "2025-12-22T05:11:04.017408",
        "meta_mean_motion": 15.41576812,
        "meta_eccentricity": 0.0004342,
        "meta_inclination": 97.5097,
        "meta_ra_of_asc_node": 159.2867,
        "meta_arg_of_pericenter": 46.9012,
        "meta_mean_anomaly": 313.2597,
        "meta_ephemeris_type": 0,
        "meta_classification_type": "U",
        "meta_norad_cat_id": 55976,
        "meta_element_set_no": 999,
        "meta_rev_at_epoch": 15352,
        "meta_bstar": 0.0004117,
        "meta_mean_motion_dot": 0.00017237,
        "meta_mean_motion_ddot": 0,
        "tle_line1": "1 55976U 23039D   25356.21601872  .00017237  00000+0  41170-3 0  9992",
        "tle_line2": "2 55976  97.5097 159.2867 0004342  46.9012 313.2597 15.41576812153520"
      },
      "geometry": {
        "type": "Point",
        "coordinates": [
          154.82699670514108,
          32.02380788202851
        ]
      }
    },
    {
      "type": "Feature",
      "properties": {
        "norad_id": 56232,
        "name": "FENGYUN 3G",
        "group": "weather",
        "lat": -49.79770886646582,
        "lon": 80.80543696985755,
        "alt_km": 407.07529308373614,
        "timestamp": "2025-12-22T11:33:20.072180+00:00",
        "meta_object_name": "FENGYUN 3G",
        "meta_object_id": "2023-055A",
        "meta_epoch": "2025-12-22T02:42:05.196960",
        "meta_mean_motion": 15.54168405,
        "meta_eccentricity": 0.0009246,
        "meta_inclination": 49.992,
        "meta_ra_of_asc_node": 179.0672,
        "meta_arg_of_pericenter": 190.9654,
        "meta_mean_anomaly": 169.1114,
        "meta_ephemeris_type": 0,
        "meta_classification_type": "U",
        "meta_norad_cat_id": 56232,
        "meta_element_set_no": 999,
        "meta_rev_at_epoch": 15248,
        "meta_bstar": 0.00051463,
        "meta_mean_motion_dot": 0.00033891,
        "meta_mean_motion_ddot": 0,
        "tle_line1": "1 56232U 23055A   25356.11256015  .00033891  00000+0  51463-3 0  9990",
        "tle_line2": "2 56232  49.9920 179.0672 0009246 190.9654 169.1114 15.54168405152482"
      },
      "geometry": {
        "type": "Point",
        "coordinates": [
          80.80543696985755,
          -49.79770886646582
        ]
      }
    },
    {
      "type": "Feature",
      "properties": {
        "norad_id": 57166,
        "name": "METEOR-M2 3",
        "group": "weather",
        "lat": 58.852644907925175,
        "lon": -115.58516145550519,
        "alt_km": 807.9343783292643,
        "timestamp": "2025-12-22T11:33:20.072198+00:00",
        "meta_object_name": "METEOR-M2 3",
        "meta_object_id": "2023-091A",
        "meta_epoch": "2025-12-22T04:14:55.924224",
        "meta_mean_motion": 14.24027198,
        "meta_eccentricity": 0.0003392,
        "meta_inclination": 98.6364,
        "meta_ra_of_asc_node": 49.551,
        "meta_arg_of_pericenter": 340.0949,
        "meta_mean_anomaly": 20.0097,
        "meta_ephemeris_type": 0,
        "meta_classification_type": "U",
        "meta_norad_cat_id": 57166,
        "meta_element_set_no": 999,
        "meta_rev_at_epoch": 12932,
        "meta_bstar": 2.6677e-05,
        "meta_mean_motion_dot": 1.8e-07,
        "meta_mean_motion_ddot": 0,
        "tle_line1": "1 57166U 23091A   25356.17703616  .00000018  00000+0  26677-4 0  9992",
        "tle_line2": "2 57166  98.6364  49.5510 0003392 340.0949  20.0097 14.24027198129326"
      },
      "geometry": {
        "type": "Point",
        "coordinates": [
          -115.58516145550519,
          58.852644907925175
        ]
      }
    },
    {
      "type": "Feature",
      "properties": {
        "norad_id": 57399,
        "name": "TIANMU-1 07",
        "group": "weather",
        "lat": -8.10352714205304,
        "lon": 47.16055880743291,
        "alt_km": 483.7494667359297,
        "timestamp": "2025-12-22T11:33:20.072223+00:00",
        "meta_object_name": "TIANMU-1 07",
        "meta_object_id": "2023-101A",
        "meta_epoch": "2025-12-22T03:44:01.580640",
        "meta_mean_motion": 15.28196796,
        "meta_eccentricity": 0.0005196,
        "meta_inclination": 97.286,
        "meta_ra_of_asc_node": 45.798,
        "meta_arg_of_pericenter": 57.6672,
        "meta_mean_anomaly": 302.507,
        "meta_ephemeris_type": 0,
        "meta_classification_type": "U",
        "meta_norad_cat_id": 57399,
        "meta_element_set_no": 999,
        "meta_rev_at_epoch": 13459,
        "meta_bstar": 0.00029266,
        "meta_mean_motion_dot": 7.973e-05,
        "meta_mean_motion_ddot": 0,
        "tle_line1": "1 57399U 23101A   25356.15557385  .00007973  00000+0  29266-3 0  9993",
        "tle_line2": "2 57399  97.2860  45.7980 0005196  57.6672 302.5070 15.28196796134597"
      },
      "geometry": {
        "type": "Point",
        "coordinates": [
          47.16055880743291,
          -8.10352714205304
        ]
      }
    }
  ]
}